GLOBALSTAR M067 [+]     
1 32263U 07048A   23254.35877874 -.00000057  00000+0  29885-3 0  9997
2 32263  51.9719 122.6813 0001601  53.4052 117.4578 12.40631183729448
GLOBALSTAR M070 [+]     
1 32264U 07048B   23254.53329337 -.00000050  00000+0  30032-3 0  9993
2 32264  51.9746 292.3121 0000793 120.1154  26.5024 12.62277920732250
GLOBALSTAR M066 [+]     
1 32265U 07048C   23254.49607354 -.00000067  00000+0  20645-3 0  9994
2 32265  51.9670 154.5033 0000906 357.1384 174.4774 12.62263898735450
GLOBALSTAR M068 [-]     
1 32266U 07048D   23254.33334750 -.00000065  00000+0  21409-3 0  9992
2 32266  51.9879 107.8849 0001186 113.4118  57.2047 12.62766116736089
GLOBALSTAR M079 [+]     
1 37188U 10054A   23254.56365653 -.00000073  00000+0  17049-3 0  9996
2 37188  52.0043 302.1278 0000294  85.6776  82.9078 12.62267613595043
GLOBALSTAR M074 [+]     
1 37189U 10054B   23254.39747196 -.00000073  00000+0  16995-3 0  9993
2 37189  52.0018 302.0562 0000470 104.9280 268.2058 12.62269678595637
GLOBALSTAR M076 [+]     
1 37190U 10054C   23254.53159683 -.00000061  00000+0  23761-3 0  9995
2 37190  52.0032 301.7589 0000770  53.9926  89.8477 12.62260980595362
GLOBALSTAR M077 [+]     
1 37191U 10054D   23254.33172729 -.00000083  00000+0  11682-3 0  9993
2 37191  52.0051 259.0379 0000381  93.3090 280.3989 12.62260682595718
